start=new Date('2021-11-16T00:00:00.000Z').valueOf();
sats=[{"GP_ID":"189836956","EPOCH":"2021-11-15T18:01:27.504192","INCLINATION":"53.0524","BSTAR":"-0.00002821900000","OBJECT_TYPE":"PAYLOAD","ECCENTRICITY":"0.00018220","DECAY_DATE":null,"ELEMENT_SET_NO":"999","CENTER_NAME":"EARTH","REV_AT_EPOCH":"10246","TLE_LINE2":"2 44923  53.0524 216.7988 0001822  70.4899 289.6287 15.06391475102460","TLE_LINE1":"1 44923U 20001K   21319.75101278 -.00000702  00000-0 -28219-4 0  9999","OBJECT_ID":"2020-001K","TIME_SYSTEM":"UTC","LAUNCH_DATE":"2020-01-07","APOAPSIS":"548.501","MEAN_ELEMENT_THEORY":"SGP4","SITE":"AFETR","MEAN_ANOMALY":"289.6287","COUNTRY_CODE":"US","ARG_OF_PERICENTER":"70.4899","RA_OF_ASC_NODE":"216.7988","MEAN_MOTION_DDOT":"0.0000000000000","FILE":"3215928","RCS_SIZE":"LARGE","MEAN_MOTION":"15.06391475","MEAN_MOTION_DOT":"-0.00000702","CLASSIFICATION_TYPE":"U","PERIOD":"95.593","NORAD_CAT_ID":"44923","SEMIMAJOR_AXIS":"6925.375","OBJECT_NAME":"STARLINK-1106","EPHEMERIS_TYPE":"0","PERIAPSIS":"545.978","REF_FRAME":"TEME"},{"RCS_SIZE":"LARGE","FILE":"3215928","MEAN_MOTION_DDOT":"0.0000000000000","RA_OF_ASC_NODE":"215.9524","ARG_OF_PERICENTER":"70.2268","COUNTRY_CODE":"US","MEAN_ANOMALY":"289.8919","SITE":"AFETR","MEAN_ELEMENT_THEORY":"SGP4","APOAPSIS":"548.475","REF_FRAME":"TEME","PERIAPSIS":"545.928","EPHEMERIS_TYPE":"0","OBJECT_NAME":"STARLINK-1111","SEMIMAJOR_AXIS":"6925.336","PERIOD":"95.592","NORAD_CAT_ID":"44924","CLASSIFICATION_TYPE":"U","MEAN_MOTION_DOT":"0.00001605","MEAN_MOTION":"15.06403968","ELEMENT_SET_NO":"999","DECAY_DATE":null,"ECCENTRICITY":"0.00018390","BSTAR":"0.00012659000000","OBJECT_TYPE":"PAYLOAD","EPOCH":"2021-11-15T22:32:08.059488","INCLINATION":"53.0534","GP_ID":"189835704","LAUNCH_DATE":"2020-01-07","OBJECT_ID":"2020-001L","TIME_SYSTEM":"UTC","TLE_LINE1":"1 44924U 20001L   21319.93898217  .00001605  00000-0  12659-3 0  9997","TLE_LINE2":"2 44924  53.0534 215.9524 0001839  70.2268 289.8919 15.06403968102493","REV_AT_EPOCH":"10249","CENTER_NAME":"EARTH"},{"ELEMENT_SET_NO":"999","DECAY_DATE":null,"ECCENTRICITY":"0.00016630","BSTAR":"-0.00001723100000","OBJECT_TYPE":"PAYLOAD","EPOCH":"2021-11-15T18:06:45.842400","INCLINATION":"53.0537","GP_ID":"189835954","LAUNCH_DATE":"2020-01-07","TIME_SYSTEM":"UTC","OBJECT_ID":"2020-001M","TLE_LINE1":"1 44925U 20001M   21319.75469725 -.00000538  00000-0 -17231-4 0  9994","TLE_LINE2":"2 44925  53.0537 216.7759 0001663  75.6117 284.5057 15.06392321102465","REV_AT_EPOCH":"10246","CENTER_NAME":"EARTH","RCS_SIZE":"LARGE","FILE":"3215928","MEAN_MOTION_DDOT":"0.0000000000000","RA_OF_ASC_NODE":"216.7759","ARG_OF_PERICENTER":"75.6117","COUNTRY_CODE":"US","SITE":"AFETR","MEAN_ANOMALY":"284.5057","MEAN_ELEMENT_THEORY":"SGP4","APOAPSIS":"548.389","REF_FRAME":"TEME","PERIAPSIS":"546.085","EPHEMERIS_TYPE":"0","OBJECT_NAME":"STARLINK-1112","SEMIMAJOR_AXIS":"6925.372","CLASSIFICATION_TYPE":"U","PERIOD":"95.593","NORAD_CAT_ID":"44925","MEAN_MOTION_DOT":"-0.00000538","MEAN_MOTION":"15.06392321"},{"GP_ID":"189806912","DECAY_DATE":null,"ECCENTRICITY":"0.00015610","ELEMENT_SET_NO":"999","BSTAR":"-0.00000327730000","OBJECT_TYPE":"PAYLOAD","INCLINATION":"52.9993","EPOCH":"2021-11-15T10:47:25.149696","TLE_LINE1":"1 44926U 20001N   21319.44959664 -.00000327  00000-0 -32773-5 0  9992","TLE_LINE2":"2 44926  52.9993 218.1544 0001561  72.9126 287.2033 15.05585108103141","CENTER_NAME":"EARTH","REV_AT_EPOCH":"10314","LAUNCH_DATE":"2020-01-07","OBJECT_ID":"2020-001N","TIME_SYSTEM":"UTC","COUNTRY_CODE":"US","SITE":"AFETR","MEAN_ELEMENT_THEORY":"SGP4","MEAN_ANOMALY":"287.2033","RA_OF_ASC_NODE":"218.1544","ARG_OF_PERICENTER":"72.9126","APOAPSIS":"550.794","RCS_SIZE":"LARGE","FILE":"3215681","MEAN_MOTION_DDOT":"0.0000000000000","PERIOD":"95.644","NORAD_CAT_ID":"44926","CLASSIFICATION_TYPE":"U","MEAN_MOTION_DOT":"-0.00000327","SEMIMAJOR_AXIS":"6927.847","MEAN_MOTION":"15.05585108","REF_FRAME":"TEME","EPHEMERIS_TYPE":"0","OBJECT_NAME":"STARLINK-1113","PERIAPSIS":"548.631"},{"DECAY_DATE":null,"ECCENTRICITY":"0.00016810","ELEMENT_SET_NO":"999","BSTAR":"0.00010721000000","OBJECT_TYPE":"PAYLOAD","INCLINATION":"53.0535","EPOCH":"2021-11-15T19:58:12.629568","GP_ID":"189836457","LAUNCH_DATE":"2020-01-07","OBJECT_ID":"2020-001P","TIME_SYSTEM":"UTC","TLE_LINE1":"1 44927U 20001P   21319.83209062  .00001316  00000-0  10721-3 0  9990","TLE_LINE2":"2 44927  53.0535 216.4287 0001681  72.9359 287.1814 15.06403852102480","CENTER_NAME":"EARTH","REV_AT_EPOCH":"10248","RCS_SIZE":"LARGE","FILE":"3215928","MEAN_MOTION_DDOT":"0.0000000000000","COUNTRY_CODE":"US","MEAN_ELEMENT_THEORY":"SGP4","SITE":"AFETR","MEAN_ANOMALY":"287.1814","RA_OF_ASC_NODE":"216.4287","ARG_OF_PERICENTER":"72.9359","APOAPSIS":"548.366","REF_FRAME":"TEME","OBJECT_NAME":"STARLINK-1114","EPHEMERIS_TYPE":"0","PERIAPSIS":"546.038","CLASSIFICATION_TYPE":"U","PERIOD":"95.592","NORAD_CAT_ID":"44927","MEAN_MOTION_DOT":"0.00001316","SEMIMAJOR_AXIS":"6925.337","MEAN_MOTION":"15.06403852"},{"GP_ID":"189835205","DECAY_DATE":null,"ECCENTRICITY":"0.00017330","ELEMENT_SET_NO":"999","BSTAR":"0.00003477000000","OBJECT_TYPE":"PAYLOAD","INCLINATION":"53.0550","EPOCH":"2021-11-15T18:17:23.013888","TLE_LINE1":"1 44928U 20001Q   21319.76207192  .00000236  00000-0  34770-4 0  9996","TLE_LINE2":"2 44928  53.0550 216.7549 0001733  69.7879 290.3296 15.06392728102479","CENTER_NAME":"EARTH","REV_AT_EPOCH":"10247","LAUNCH_DATE":"2020-01-07","TIME_SYSTEM":"UTC","OBJECT_ID":"2020-001Q","COUNTRY_CODE":"US","MEAN_ELEMENT_THEORY":"SGP4","SITE":"AFETR","MEAN_ANOMALY":"290.3296","RA_OF_ASC_NODE":"216.7549","ARG_OF_PERICENTER":"69.7879","APOAPSIS":"548.436","RCS_SIZE":"LARGE","FILE":"3215928","MEAN_MOTION_DDOT":"0.0000000000000","PERIOD":"95.593","CLASSIFICATION_TYPE":"U","NORAD_CAT_ID":"44928","MEAN_MOTION_DOT":"0.00000236","SEMIMAJOR_AXIS":"6925.371","MEAN_MOTION":"15.06392728","REF_FRAME":"TEME","EPHEMERIS_TYPE":"0","OBJECT_NAME":"STARLINK-1119","PERIAPSIS":"546.036"},{"OBJECT_TYPE":"PAYLOAD","BSTAR":"0.00000200080000","INCLINATION":"53.0536","EPOCH":"2021-11-15T21:07:13.233792","ELEMENT_SET_NO":"999","DECAY_DATE":null,"ECCENTRICITY":"0.00017110","GP_ID":"189835455","TIME_SYSTEM":"UTC","OBJECT_ID":"2020-001R","LAUNCH_DATE":"2020-01-07","REV_AT_EPOCH":"10248","CENTER_NAME":"EARTH","TLE_LINE1":"1 44929U 20001R   21319.88001428 -.00000252  00000-0  20008-5 0  9993","TLE_LINE2":"2 44929  53.0536 216.2115 0001711  76.3709 283.7470 15.06395799102482","FILE":"3215928","MEAN_MOTION_DDOT":"0.0000000000000","RCS_SIZE":"LARGE","APOAPSIS":"548.411","RA_OF_ASC_NODE":"216.2115","ARG_OF_PERICENTER":"76.3709","COUNTRY_CODE":"US","SITE":"AFETR","MEAN_ELEMENT_THEORY":"SGP4","MEAN_ANOMALY":"283.7470","PERIAPSIS":"546.042","EPHEMERIS_TYPE":"0","OBJECT_NAME":"STARLINK-1121","REF_FRAME":"TEME","MEAN_MOTION":"15.06395799","SEMIMAJOR_AXIS":"6925.361","CLASSIFICATION_TYPE":"U","PERIOD":"95.592","NORAD_CAT_ID":"44929","MEAN_MOTION_DOT":"-0.00000252"},{"REV_AT_EPOCH":"10246","CENTER_NAME":"EARTH","TLE_LINE1":"1 44930U 20001S   21319.71415312  .00001884  00000-0  14536-3 0  9996","TLE_LINE2":"2 44930  53.0531 216.9681 0001666  85.8947 274.2232 15.06400581102467","OBJECT_ID":"2020-001S","TIME_SYSTEM":"UTC","LAUNCH_DATE":"2020-01-07","GP_ID":"189836706","BSTAR":"0.00014536000000","OBJECT_TYPE":"PAYLOAD","INCLINATION":"53.0531","EPOCH":"2021-11-15T17:08:22.829568","ELEMENT_SET_NO":"999","DECAY_DATE":null,"ECCENTRICITY":"0.00016660","MEAN_MOTION":"15.06400581","SEMIMAJOR_AXIS":"6925.347","NORAD_CAT_ID":"44930","PERIOD":"95.592","CLASSIFICATION_TYPE":"U","MEAN_MOTION_DOT":"0.00001884","PERIAPSIS":"546.058","OBJECT_NAME":"STARLINK-1123","EPHEMERIS_TYPE":"0","REF_FRAME":"TEME","APOAPSIS":"548.366","RA_OF_ASC_NODE":"216.9681","ARG_OF_PERICENTER":"85.8947","COUNTRY_CODE":"US","MEAN_ELEMENT_THEORY":"SGP4","SITE":"AFETR","MEAN_ANOMALY":"274.2232","FILE":"3215928","MEAN_MOTION_DDOT":"0.0000000000000","RCS_SIZE":"LARGE"},{"ELEMENT_SET_NO":"999","DECAY_DATE":null,"ECCENTRICITY":"0.00016920","OBJECT_TYPE":"PAYLOAD","BSTAR":"-0.00002848500000","EPOCH":"2021-11-15T18:12:04.318848","INCLINATION":"53.0536","GP_ID":"189836957","LAUNCH_DATE":"2020-01-07","OBJECT_ID":"2020-001T","TIME_SYSTEM":"UTC","TLE_LINE1":"1 44931U 20001T   21319.75838332 -.00000706  00000-0 -28485-4 0  9995","TLE_LINE2":"2 44931  53.0536 216.7570 0001692  82.2981 277.8200 15.06392014103215","REV_AT_EPOCH":"10321","CENTER_NAME":"EARTH","RCS_SIZE":"LARGE","FILE":"3215928","MEAN_MOTION_DDOT":"0.0000000000000","RA_OF_ASC_NODE":"216.7570","ARG_OF_PERICENTER":"82.2981","COUNTRY_CODE":"US","MEAN_ELEMENT_THEORY":"SGP4","SITE":"AFETR","MEAN_ANOMALY":"277.8200","APOAPSIS":"548.410","REF_FRAME":"TEME","PERIAPSIS":"546.066","OBJECT_NAME":"STARLINK-1128","EPHEMERIS_TYPE":"0","SEMIMAJOR_AXIS":"6925.373","CLASSIFICATION_TYPE":"U","PERIOD":"95.593","NORAD_CAT_ID":"44931","MEAN_MOTION_DOT":"-0.00000706","MEAN_MOTION":"15.06392014"},{"RCS_SIZE":"LARGE","MEAN_MOTION_DDOT":"0.0000000000000","FILE":"3215928","MEAN_ANOMALY":"289.9165","SITE":"AFETR","MEAN_ELEMENT_THEORY":"SGP4","COUNTRY_CODE":"US","ARG_OF_PERICENTER":"70.2019","RA_OF_ASC_NODE":"216.7214","APOAPSIS":"548.457","REF_FRAME":"TEME","EPHEMERIS_TYPE":"0","OBJECT_NAME":"STARLINK-1130","PERIAPSIS":"545.950","MEAN_MOTION_DOT":"-0.00001348","PERIOD":"95.592","NORAD_CAT_ID":"44932","CLASSIFICATION_TYPE":"U","SEMIMAJOR_AXIS":"6925.338","MEAN_MOTION":"15.06403361","ECCENTRICITY":"0.00018100","DECAY_DATE":null,"ELEMENT_SET_NO":"999","INCLINATION":"53.0534","EPOCH":"2021-11-15T18:27:58.792608","BSTAR":"-0.00007159100000","OBJECT_TYPE":"PAYLOAD","GP_ID":"189835705","LAUNCH_DATE":"2020-01-07","OBJECT_ID":"2020-001U","TIME_SYSTEM":"UTC","TLE_LINE2":"2 44932  53.0534 216.7214 0001810  70.2019 289.9165 15.06403361103706","TLE_LINE1":"1 44932U 20001U   21319.76943047 -.00001348  00000-0 -71591-4 0  9996","CENTER_NAME":"EARTH","REV_AT_EPOCH":"10370"}];
